{"type": "FeatureCollection", "features": [ {"type": "Feature", "properties": {"norad_id": 52912, "name": "GAOFEN-12 03", "group": "resource", "lat": -20.488887490520657, "lon": 60.78100009589658, "alt_km": 636.9242942341261, "timestamp": "2025-12-22T14:45:57.042746+00:00", "meta": {"OBJECT_NAME": "GAOFEN-12 03", "OBJECT_ID": "2022-069A", "EPOCH": "2025-12-22T05:44:49.780320", "MEAN_MOTION": 14.79628489, "ECCENTRICITY": 0.00019096, "INCLINATION": 97.8486, "RA_OF_ASC_NODE": 243.3685, "ARG_OF_PERICENTER": 50.6766, "MEAN_ANOMALY": 309.4615, "EPHEMERIS_TYPE": 0, "CLASSIFICATION_TYPE": "U", "NORAD_CAT_ID": 52912, "ELEMENT_SET_NO": 999, "REV_AT_EPOCH": 18844, "BSTAR": 0.00010803907, "MEAN_MOTION_DOT": 7.59e-06, "MEAN_MOTION_DDOT": 0}, "tle": {"line1": "1 52912U 22069A   25356.23946505  .00000759  00000+0  10804-3 0  9999", "line2": "2 52912  97.8486 243.3685 0001909  50.6766 309.4615 14.79628489188444"}}, "geometry": {"type": "Point", "coordinates": [60.78100009589658, -20.488887490520657]}}, {"type": "Feature", "properties": {"norad_id": 54754, "name": "SWOT", "group": "resource", "lat": -57.43093576112366, "lon": 113.78632033926536, "alt_km": 900.3635985567607, "timestamp": "2025-12-22T14:45:57.042756+00:00", "meta": {"OBJECT_NAME": "SWOT", "OBJECT_ID": "2022-173A", "EPOCH": "2025-12-22T05:03:02.333952", "MEAN_MOTION": 14.00168192, "ECCENTRICITY": 3.709e-05, "INCLINATION": 77.611, "RA_OF_ASC_NODE": 274.2056, "ARG_OF_PERICENTER": 85.4619, "MEAN_ANOMALY": 274.6575, "EPHEMERIS_TYPE": 0, "CLASSIFICATION_TYPE": "U", "NORAD_CAT_ID": 54754, "ELEMENT_SET_NO": 999, "REV_AT_EPOCH": 15438, "BSTAR": 1.6520631e-05, "MEAN_MOTION_DOT": 2.2e-07, "MEAN_MOTION_DDOT": 0}, "tle": {"line1": "1 54754U 22173A   25356.21044368  .00000022  00000+0  16521-4 0  9991", "line2": "2 54754  77.6110 274.2056 0000370  85.4619 274.6575 14.00168192154387"}}, "geometry": {"type": "Point", "coordinates": [113.78632033926536, -57.43093576112366]}}, {"type": "Feature", "properties": {"norad_id": 57654, "name": "GAOFEN-12 04", "group": "resource", "lat": 13.290861405974345, "lon": -89.65991630327862, "alt_km": 630.9389572225755, "timestamp": "2025-12-22T14:45:57.042766+00:00", "meta": {"OBJECT_NAME": "GAOFEN-12 04", "OBJECT_ID": "2023-123A", "EPOCH": "2025-12-22T06:35:26.992608", "MEAN_MOTION": 14.79726392, "ECCENTRICITY": 0.00012138, "INCLINATION": 97.9128, "RA_OF_ASC_NODE": 271.8874, "ARG_OF_PERICENTER": 78.0159, "MEAN_ANOMALY": 282.1189, "EPHEMERIS_TYPE": 0, "CLASSIFICATION_TYPE": "U", "NORAD_CAT_ID": 57654, "ELEMENT_SET_NO": 999, "REV_AT_EPOCH": 12646, "BSTAR": 0.00017634286, "MEAN_MOTION_DOT": 1.274e-05, "MEAN_MOTION_DDOT": 0}, "tle": {"line1": "1 57654U 23123A   25356.27461797  .00001274  00000+0  17634-3 0  9999", "line2": "2 57654  97.9128 271.8874 0001213  78.0159 282.1189 14.79726392126469"}}, "geometry": {"type": "Point", "coordinates": [-89.65991630327862, 13.290861405974345]}}, {"type": "Feature", "properties": {"norad_id": 59065, "name": "PARS 1", "group": "resource", "lat": 67.19697190477795, "lon": -50.4136425811283, "alt_km": 428.82956492270296, "timestamp": "2025-12-22T14:45:57.042777+00:00", "meta": {"OBJECT_NAME": "PARS 1", "OBJECT_ID": "2024-039Q", "EPOCH": "2025-12-22T06:40:46.337376", "MEAN_MOTION": 15.4117824, "ECCENTRICITY": 0.0011875, "INCLINATION": 97.4648, "RA_OF_ASC_NODE": 327.4145, "ARG_OF_PERICENTER": 43.2325, "MEAN_ANOMALY": 316.9851, "EPHEMERIS_TYPE": 0, "CLASSIFICATION_TYPE": "U", "NORAD_CAT_ID": 59065, "ELEMENT_SET_NO": 999, "REV_AT_EPOCH": 10135, "BSTAR": 0.00031210146, "MEAN_MOTION_DOT": 0.00012895, "MEAN_MOTION_DDOT": 0}, "tle": {"line1": "1 59065U 24039Q   25356.27831409  .00012895  00000+0  31210-3 0  9992", "line2": "2 59065  97.4648 327.4145 0011875  43.2325 316.9851 15.41178240101358"}}, "geometry": {"type": "Point", "coordinates": [-50.4136425811283, 67.19697190477795]}}, {"type": "Feature", "properties": {"norad_id": 59371, "name": "RESURS-P 4", "group": "resource", "lat": -70.86448864958525, "lon": 101.19920920546244, "alt_km": 477.32061302905095, "timestamp": "2025-12-22T14:45:57.042787+00:00", "meta": {"OBJECT_NAME": "RESURS-P 4", "OBJECT_ID": "2024-061A", "EPOCH": "2025-12-22T07:23:54.926304", "MEAN_MOTION": 15.32157045, "ECCENTRICITY": 9.282e-05, "INCLINATION": 97.2562, "RA_OF_ASC_NODE": 302.4426, "ARG_OF_PERICENTER": 68.4704, "MEAN_ANOMALY": 291.6637, "EPHEMERIS_TYPE": 0, "CLASSIFICATION_TYPE": "U", "NORAD_CAT_ID": 59371, "ELEMENT_SET_NO": 999, "REV_AT_EPOCH": 9667, "BSTAR": 0.00013439443, "MEAN_MOTION_DOT": 4.096e-05, "MEAN_MOTION_DDOT": 0}, "tle": {"line1": "1 59371U 24061A   25356.30827461  .00004096  00000+0  13439-3 0  9991", "line2": "2 59371  97.2562 302.4426 0000928  68.4704 291.6637 15.32157045 96672"}}, "geometry": {"type": "Point", "coordinates": [101.19920920546244, -70.86448864958525]}}, {"type": "Feature", "properties": {"norad_id": 59625, "name": "LEGION 1", "group": "resource", "lat": -74.32403175000593, "lon": 99.25178674357059, "alt_km": 521.0951469504889, "timestamp": "2025-12-22T14:45:57.042797+00:00", "meta": {"OBJECT_NAME": "LEGION 1", "OBJECT_ID": "2024-081A", "EPOCH": "2025-12-22T05:36:00.591552", "MEAN_MOTION": 15.16566882, "ECCENTRICITY": 0.00036272, "INCLINATION": 97.5203, "RA_OF_ASC_NODE": 70.7911, "ARG_OF_PERICENTER": 273.5774, "MEAN_ANOMALY": 86.5045, "EPHEMERIS_TYPE": 0, "CLASSIFICATION_TYPE": "U", "NORAD_CAT_ID": 59625, "ELEMENT_SET_NO": 999, "REV_AT_EPOCH": 9071, "BSTAR": 0.00027635471, "MEAN_MOTION_DOT": 5.327e-05, "MEAN_MOTION_DDOT": 0}, "tle": {"line1": "1 59625U 24081A   25356.23334018  .00005327  00000+0  27635-3 0  9999", "line2": "2 59625  97.5203  70.7911 0003627 273.5774  86.5045 15.16566882 90716"}}, "geometry": {"type": "Point", "coordinates": [99.25178674357059, -74.32403175000593]}}, {"type": "Feature", "properties": {"norad_id": 59626, "name": "LEGION 2", "group": "resource", "lat": 74.11350812671033, "lon": -81.08450308507204, "alt_km": 512.3858638732763, "timestamp": "2025-12-22T14:45:57.042808+00:00", "meta": {"OBJECT_NAME": "LEGION 2", "OBJECT_ID": "2024-081B", "EPOCH": "2025-12-22T06:23:27.337632", "MEAN_MOTION": 15.16581201, "ECCENTRICITY": 0.00056655, "INCLINATION": 97.5206, "RA_OF_ASC_NODE": 70.9116, "ARG_OF_PERICENTER": 252.2565, "MEAN_ANOMALY": 107.805, "EPHEMERIS_TYPE": 0, "CLASSIFICATION_TYPE": "U", "NORAD_CAT_ID": 59626, "ELEMENT_SET_NO": 999, "REV_AT_EPOCH": 9072, "BSTAR": 0.00025369134, "MEAN_MOTION_DOT": 4.888e-05, "MEAN_MOTION_DDOT": 0}, "tle": {"line1": "1 59626U 24081B   25356.26628863  .00004888  00000+0  25369-3 0  9990", "line2": "2 59626  97.5206  70.9116 0005665 252.2565 107.8050 15.16581201 90721"}}, "geometry": {"type": "Point", "coordinates": [-81.08450308507204, 74.11350812671033]}}, {"type": "Feature", "properties": {"norad_id": 60182, "name": "ALOS-4 (DAICHI-4)", "group": "resource", "lat": -64.4804342111142, "lon": -105.63813159719416, "alt_km": 639.0248402000161, "timestamp": "2025-12-22T14:45:57.042818+00:00", "meta": {"OBJECT_NAME": "ALOS-4 (DAICHI-4)", "OBJECT_ID": "2024-123A", "EPOCH": "2025-12-20T19:27:23.067360", "MEAN_MOTION": 14.79476697, "ECCENTRICITY": 0.00013881, "INCLINATION": 97.9224, "RA_OF_ASC_NODE": 89.5428, "ARG_OF_PERICENTER": 101.339, "MEAN_ANOMALY": 258.7977, "EPHEMERIS_TYPE": 0, "CLASSIFICATION_TYPE": "U", "NORAD_CAT_ID": 60182, "ELEMENT_SET_NO": 999, "REV_AT_EPOCH": 7950, "BSTAR": 0.00018374076, "MEAN_MOTION_DOT": 1.321e-05, "MEAN_MOTION_DDOT": 0}, "tle": {"line1": "1 60182U 24123A   25354.81068365  .00001321  00000+0  18374-3 0  9997", "line2": "2 60182  97.9224  89.5428 0001388 101.3390 258.7977 14.79476697 79501"}}, "geometry": {"type": "Point", "coordinates": [-105.63813159719416, -64.4804342111142]}}, {"type": "Feature", "properties": {"norad_id": 60452, "name": "LEGION 3", "group": "resource", "lat": -25.057595253522294, "lon": 105.08194144792286, "alt_km": 512.1036034500039, "timestamp": "2025-12-22T14:45:57.042828+00:00", "meta": {"OBJECT_NAME": "LEGION 3", "OBJECT_ID": "2024-146A", "EPOCH": "2025-12-22T04:19:23.242368", "MEAN_MOTION": 15.15852261, "ECCENTRICITY": 0.00156989, "INCLINATION": 45.0011, "RA_OF_ASC_NODE": 259.5219, "ARG_OF_PERICENTER": 249.281, "MEAN_ANOMALY": 110.6386, "EPHEMERIS_TYPE": 0, "CLASSIFICATION_TYPE": "U", "NORAD_CAT_ID": 60452, "ELEMENT_SET_NO": 999, "REV_AT_EPOCH": 7516, "BSTAR": 0.00024992706, "MEAN_MOTION_DOT": 4.611e-05, "MEAN_MOTION_DDOT": 0}, "tle": {"line1": "1 60452U 24146A   25356.18013012  .00004611  00000+0  24993-3 0  9992", "line2": "2 60452  45.0011 259.5219 0015698 249.2810 110.6386 15.15852261 75168"}}, "geometry": {"type": "Point", "coordinates": [105.08194144792286, -25.057595253522294]}}, {"type": "Feature", "properties": {"norad_id": 60453, "name": "LEGION 4", "group": "resource", "lat": -24.426642958297283, "lon": -164.04032924931477, "alt_km": 525.7617093262907, "timestamp": "2025-12-22T14:45:57.042839+00:00", "meta": {"OBJECT_NAME": "LEGION 4", "OBJECT_ID": "2024-146B", "EPOCH": "2025-12-22T05:54:38.319840", "MEAN_MOTION": 15.15917548, "ECCENTRICITY": 0.00084782, "INCLINATION": 45.0393, "RA_OF_ASC_NODE": 350.9453, "ARG_OF_PERICENTER": 3.0084, "MEAN_ANOMALY": 357.0845, "EPHEMERIS_TYPE": 0, "CLASSIFICATION_TYPE": "U", "NORAD_CAT_ID": 60453, "ELEMENT_SET_NO": 999, "REV_AT_EPOCH": 7402, "BSTAR": 0.00029600423, "MEAN_MOTION_DOT": 5.511e-05, "MEAN_MOTION_DDOT": 0}, "tle": {"line1": "1 60453U 24146B   25356.24627685  .00005511  00000+0  29600-3 0  9997", "line2": "2 60453  45.0393 350.9453 0008478   3.0084 357.0845 15.15917548 74026"}}, "geometry": {"type": "Point", "coordinates": [-164.04032924931477, -24.426642958297283]}}]}